TRANSPORTER-11 OBJECT A 
1 60468U 24149A   26068.74646182  .00010774  00000+0  36054-3 0  9993
2 60468  97.3780 149.0949 0003110 191.0010 169.1164 15.31141332 86830
STARLINK-35679          
1 66408U 25257AE  26068.68637685  .00033508  00000+0  11386-2 0  9995
2 66408  53.1584 216.9791 0000886  66.6156 293.4938 15.30194471 19732
